[{"OBJECT_NAME":"OBJECT V","OBJECT_ID":"2023-085V","EPOCH":"2026-03-09T21:44:00.165408","MEAN_MOTION":15.30745852,"ECCENTRICITY":0.00069081,"INCLINATION":97.4843,"RA_OF_ASC_NODE":179.3833,"ARG_OF_PERICENTER":71.0503,"MEAN_ANOMALY":289.1485,"EPHEMERIS_TYPE":0,"CLASSIFICATION_TYPE":"U","NORAD_CAT_ID":57023,"ELEMENT_SET_NO":999,"REV_AT_EPOCH":15149,"BSTAR":0.00067780507,"MEAN_MOTION_DOT":0.00020109,"MEAN_MOTION_DDOT":0},{"OBJECT_NAME":"STARLINK-35850","OBJECT_ID":"2025-254E","EPOCH":"2026-03-09T17:09:26.126208","MEAN_MOTION":15.30213775,"ECCENTRICITY":0.00026777,"INCLINATION":53.1597,"RA_OF_ASC_NODE":232.0429,"ARG_OF_PERICENTER":163.9442,"MEAN_ANOMALY":196.1644,"EPHEMERIS_TYPE":0,"CLASSIFICATION_TYPE":"U","NORAD_CAT_ID":66352,"ELEMENT_SET_NO":999,"REV_AT_EPOCH":1898,"BSTAR":0.00096348694,"MEAN_MOTION_DOT":0.00028299,"MEAN_MOTION_DDOT":0}]
